SL-3 R/B                
1 13403U 82079B   25345.30172772  .00010272  00000+0  42410-3 0  9990
2 13403  81.1468 297.3559 0027102 103.6169 256.8085 15.23560796364235
SL-14 R/B               
1 13553U 82092B   25345.21136416  .00000710  00000+0  77197-4 0  9993
2 13553  82.5685 224.1412 0019071 232.4587 251.1216 14.86553111315785
SL-3 R/B                
1 13819U 83010B   25345.08642128  .00020257  00000+0  45020-3 0  9993
2 13819  81.1039 110.6367 0017274 356.8565   3.2566 15.43383283344260
SL-3 R/B                
1 14208U 83075B   25345.22389105  .00017856  00000+0  50563-3 0  9995
2 14208  97.6110 341.6562 0022570 180.7666 179.3547 15.36086749316564
COSMOS 1536             
1 14699U 84013A   25345.09753185  .00008120  00000+0  34841-3 0  9995
2 14699  82.5454 195.7928 0013402 232.0484 127.9542 15.22487544259135
SL-14 R/B               
1 14820U 84027B   25345.20867865  .00000823  00000+0  91625-4 0  9996
2 14820  82.5412 327.9920 0016371 266.3872  93.5472 14.85871718234495
SL-8 R/B                
1 15483U 85006B   25345.29113701  .00000444  00000+0  15619-3 0  9999
2 15483  74.0467  63.8001 0018621 356.3857  70.0088 14.37720256141325
SL-12 R/B(2)            
1 15772U 85042D   25345.27854728  .00000210  00000+0  11598-3 0  9992
2 15772  71.1086 274.5067 0037646 263.6409 208.2249 14.21951429101821
SL-14 R/B               
1 15945U 85069B   25345.28771952  .00001045  00000+0  11554-3 0  9990
2 15945  82.5266 108.0679 0020077 122.9705 237.3445 14.86322412159701
SL-16 R/B               
1 16182U 85097B   25345.30383704  .00000273  00000+0  16064-3 0  9995
2 16182  71.0032 326.6261 0006580  13.3193  84.5653 14.16583149 74710
SL-14 R/B               
1 16496U 86006B   25345.28649513  .00001090  00000+0  11366-3 0  9992
2 16496  82.5264 342.9186 0076042 204.6768 155.0805 14.86669442136071
COSMOS 1743             
1 16719U 86034A   25345.23604883  .00045066  00000+0  74496-3 0  9991
2 16719  82.5348 166.1536 0004650 259.9333 100.1395 15.52022106166504
