CCSDS_OMM_VERS = 2.0
CREATION_DATE  = 
ORIGINATOR     = 

OBJECT_NAME    = SL-3 R/B
OBJECT_ID      = 1982-079B
CENTER_NAME    = EARTH
REF_FRAME      = TEME
TIME_SYSTEM    = UTC
MEAN_ELEMENT_THEORY = SGP/SGP4

EPOCH          = 2025-12-11T07:14:29.275008
MEAN_MOTION    = 15.23560796
ECCENTRICITY   = .00271027
INCLINATION    = 81.1468
RA_OF_ASC_NODE = 297.3559
ARG_OF_PERICENTER = 103.6169
MEAN_ANOMALY   = 256.8085

EPHEMERIS_TYPE = 0
CLASSIFICATION_TYPE = U
NORAD_CAT_ID   = 13403
ELEMENT_SET_NO = 999
REV_AT_EPOCH   = 36423
BSTAR          = .42409832E-3
MEAN_MOTION_DOT = .10272E-3
MEAN_MOTION_DDOT = 0

CCSDS_OMM_VERS = 2.0
CREATION_DATE  = 
ORIGINATOR     = 

OBJECT_NAME    = SL-14 R/B
OBJECT_ID      = 1982-092B
CENTER_NAME    = EARTH
REF_FRAME      = TEME
TIME_SYSTEM    = UTC
MEAN_ELEMENT_THEORY = SGP/SGP4

EPOCH          = 2025-12-11T05:04:21.863424
MEAN_MOTION    = 14.86553111
ECCENTRICITY   = .00190719
INCLINATION    = 82.5685
RA_OF_ASC_NODE = 224.1412
ARG_OF_PERICENTER = 232.4587
MEAN_ANOMALY   = 251.1216

EPHEMERIS_TYPE = 0
CLASSIFICATION_TYPE = U
NORAD_CAT_ID   = 13553
ELEMENT_SET_NO = 999
REV_AT_EPOCH   = 31578
BSTAR          = .77196876E-4
MEAN_MOTION_DOT = .71E-5
MEAN_MOTION_DDOT = 0

CCSDS_OMM_VERS = 2.0
CREATION_DATE  = 
ORIGINATOR     = 

OBJECT_NAME    = SL-3 R/B
OBJECT_ID      = 1983-010B
CENTER_NAME    = EARTH
REF_FRAME      = TEME
TIME_SYSTEM    = UTC
MEAN_ELEMENT_THEORY = SGP/SGP4

EPOCH          = 2025-12-11T02:04:26.798592
MEAN_MOTION    = 15.43383283
ECCENTRICITY   = .00172743
INCLINATION    = 81.1039
RA_OF_ASC_NODE = 110.6367
ARG_OF_PERICENTER = 356.8565
MEAN_ANOMALY   = 3.2566

EPHEMERIS_TYPE = 0
CLASSIFICATION_TYPE = U
NORAD_CAT_ID   = 13819
ELEMENT_SET_NO = 999
REV_AT_EPOCH   = 34426
BSTAR          = .45019715E-3
MEAN_MOTION_DOT = .20257E-3
MEAN_MOTION_DDOT = 0

CCSDS_OMM_VERS = 2.0
CREATION_DATE  = 
ORIGINATOR     = 

OBJECT_NAME    = SL-3 R/B
OBJECT_ID      = 1983-075B
CENTER_NAME    = EARTH
REF_FRAME      = TEME
TIME_SYSTEM    = UTC
MEAN_ELEMENT_THEORY = SGP/SGP4

EPOCH          = 2025-12-11T05:22:24.186720
MEAN_MOTION    = 15.36086749
ECCENTRICITY   = .00225701
INCLINATION    = 97.6110
RA_OF_ASC_NODE = 341.6562
ARG_OF_PERICENTER = 180.7666
MEAN_ANOMALY   = 179.3547

EPHEMERIS_TYPE = 0
CLASSIFICATION_TYPE = U
NORAD_CAT_ID   = 14208
ELEMENT_SET_NO = 999
REV_AT_EPOCH   = 31656
BSTAR          = .5056306E-3
MEAN_MOTION_DOT = .17856E-3
MEAN_MOTION_DDOT = 0

CCSDS_OMM_VERS = 2.0
CREATION_DATE  = 
ORIGINATOR     = 

OBJECT_NAME    = COSMOS 1536
OBJECT_ID      = 1984-013A
CENTER_NAME    = EARTH
REF_FRAME      = TEME
TIME_SYSTEM    = UTC
MEAN_ELEMENT_THEORY = SGP/SGP4

EPOCH          = 2025-12-11T02:20:26.751840
MEAN_MOTION    = 15.22487544
ECCENTRICITY   = .00134024
INCLINATION    = 82.5454
RA_OF_ASC_NODE = 195.7928
ARG_OF_PERICENTER = 232.0484
MEAN_ANOMALY   = 127.9542

EPHEMERIS_TYPE = 0
CLASSIFICATION_TYPE = U
NORAD_CAT_ID   = 14699
ELEMENT_SET_NO = 999
REV_AT_EPOCH   = 25913
BSTAR          = .34841442E-3
MEAN_MOTION_DOT = .812E-4
MEAN_MOTION_DDOT = 0

CCSDS_OMM_VERS = 2.0
CREATION_DATE  = 
ORIGINATOR     = 

OBJECT_NAME    = SL-14 R/B
OBJECT_ID      = 1984-027B
CENTER_NAME    = EARTH
REF_FRAME      = TEME
TIME_SYSTEM    = UTC
MEAN_ELEMENT_THEORY = SGP/SGP4

EPOCH          = 2025-12-11T05:00:29.835360
MEAN_MOTION    = 14.85871718
ECCENTRICITY   = .00163713
INCLINATION    = 82.5412
RA_OF_ASC_NODE = 327.9920
ARG_OF_PERICENTER = 266.3872
MEAN_ANOMALY   = 93.5472

EPHEMERIS_TYPE = 0
CLASSIFICATION_TYPE = U
NORAD_CAT_ID   = 14820
ELEMENT_SET_NO = 999
REV_AT_EPOCH   = 23449
BSTAR          = .91625488E-4
MEAN_MOTION_DOT = .823E-5
MEAN_MOTION_DDOT = 0

CCSDS_OMM_VERS = 2.0
CREATION_DATE  = 
ORIGINATOR     = 

OBJECT_NAME    = SL-8 R/B
OBJECT_ID      = 1985-006B
CENTER_NAME    = EARTH
REF_FRAME      = TEME
TIME_SYSTEM    = UTC
MEAN_ELEMENT_THEORY = SGP/SGP4

EPOCH          = 2025-12-11T06:59:14.237664
MEAN_MOTION    = 14.37720256
ECCENTRICITY   = .00186212
INCLINATION    = 74.0467
RA_OF_ASC_NODE = 63.8001
ARG_OF_PERICENTER = 356.3857
MEAN_ANOMALY   = 70.0088

EPHEMERIS_TYPE = 0
CLASSIFICATION_TYPE = U
NORAD_CAT_ID   = 15483
ELEMENT_SET_NO = 999
REV_AT_EPOCH   = 14132
BSTAR          = .15619224E-3
MEAN_MOTION_DOT = .444E-5
MEAN_MOTION_DDOT = 0

CCSDS_OMM_VERS = 2.0
CREATION_DATE  = 
ORIGINATOR     = 

OBJECT_NAME    = SL-12 R/B(2)
OBJECT_ID      = 1985-042D
CENTER_NAME    = EARTH
REF_FRAME      = TEME
TIME_SYSTEM    = UTC
MEAN_ELEMENT_THEORY = SGP/SGP4

EPOCH          = 2025-12-11T06:41:06.484992
MEAN_MOTION    = 14.21951429
ECCENTRICITY   = .00376469
INCLINATION    = 71.1086
RA_OF_ASC_NODE = 274.5067
ARG_OF_PERICENTER = 263.6409
MEAN_ANOMALY   = 208.2249

EPHEMERIS_TYPE = 0
CLASSIFICATION_TYPE = U
NORAD_CAT_ID   = 15772
ELEMENT_SET_NO = 999
REV_AT_EPOCH   = 10182
BSTAR          = .11598365E-3
MEAN_MOTION_DOT = .21E-5
MEAN_MOTION_DDOT = 0

CCSDS_OMM_VERS = 2.0
CREATION_DATE  = 
ORIGINATOR     = 

OBJECT_NAME    = SL-14 R/B
OBJECT_ID      = 1985-069B
CENTER_NAME    = EARTH
REF_FRAME      = TEME
TIME_SYSTEM    = UTC
MEAN_ELEMENT_THEORY = SGP/SGP4

EPOCH          = 2025-12-11T06:54:18.966528
MEAN_MOTION    = 14.86322412
ECCENTRICITY   = .00200771
INCLINATION    = 82.5266
RA_OF_ASC_NODE = 108.0679
ARG_OF_PERICENTER = 122.9705
MEAN_ANOMALY   = 237.3445

EPHEMERIS_TYPE = 0
CLASSIFICATION_TYPE = U
NORAD_CAT_ID   = 15945
ELEMENT_SET_NO = 999
REV_AT_EPOCH   = 15970
BSTAR          = .11553775E-3
MEAN_MOTION_DOT = .1045E-4
MEAN_MOTION_DDOT = 0

CCSDS_OMM_VERS = 2.0
CREATION_DATE  = 
ORIGINATOR     = 

OBJECT_NAME    = SL-16 R/B
OBJECT_ID      = 1985-097B
CENTER_NAME    = EARTH
REF_FRAME      = TEME
TIME_SYSTEM    = UTC
MEAN_ELEMENT_THEORY = SGP/SGP4

EPOCH          = 2025-12-11T07:17:31.520256
MEAN_MOTION    = 14.16583149
ECCENTRICITY   = .00065806
INCLINATION    = 71.0032
RA_OF_ASC_NODE = 326.6261
ARG_OF_PERICENTER = 13.3193
MEAN_ANOMALY   = 84.5653

EPHEMERIS_TYPE = 0
CLASSIFICATION_TYPE = U
NORAD_CAT_ID   = 16182
ELEMENT_SET_NO = 999
REV_AT_EPOCH   = 7471
BSTAR          = .16063854E-3
MEAN_MOTION_DOT = .273E-5
MEAN_MOTION_DDOT = 0

CCSDS_OMM_VERS = 2.0
CREATION_DATE  = 
ORIGINATOR     = 

OBJECT_NAME    = SL-14 R/B
OBJECT_ID      = 1986-006B
CENTER_NAME    = EARTH
REF_FRAME      = TEME
TIME_SYSTEM    = UTC
MEAN_ELEMENT_THEORY = SGP/SGP4

EPOCH          = 2025-12-11T06:52:33.179232
MEAN_MOTION    = 14.86669442
ECCENTRICITY   = .00760421
INCLINATION    = 82.5264
RA_OF_ASC_NODE = 342.9186
ARG_OF_PERICENTER = 204.6768
MEAN_ANOMALY   = 155.0805

EPHEMERIS_TYPE = 0
CLASSIFICATION_TYPE = U
NORAD_CAT_ID   = 16496
ELEMENT_SET_NO = 999
REV_AT_EPOCH   = 13607
BSTAR          = .11365768E-3
MEAN_MOTION_DOT = .109E-4
MEAN_MOTION_DDOT = 0

CCSDS_OMM_VERS = 2.0
CREATION_DATE  = 
ORIGINATOR     = 

OBJECT_NAME    = COSMOS 1743
OBJECT_ID      = 1986-034A
CENTER_NAME    = EARTH
REF_FRAME      = TEME
TIME_SYSTEM    = UTC
MEAN_ELEMENT_THEORY = SGP/SGP4

EPOCH          = 2025-12-11T05:39:54.618912
MEAN_MOTION    = 15.52022106
ECCENTRICITY   = .00046502
INCLINATION    = 82.5348
RA_OF_ASC_NODE = 166.1536
ARG_OF_PERICENTER = 259.9333
MEAN_ANOMALY   = 100.1395

EPHEMERIS_TYPE = 0
CLASSIFICATION_TYPE = U
NORAD_CAT_ID   = 16719
ELEMENT_SET_NO = 999
REV_AT_EPOCH   = 16650
BSTAR          = .74496298E-3
MEAN_MOTION_DOT = .45066E-3
MEAN_MOTION_DDOT = 0

